NORAD_CAT_ID,OBJECT_NAME,OBJECT_TYPE,EPOCH,MEAN_MOTION,ECCENTRICITY,INCLINATION,RA_OF_ASC_NODE,ARG_OF_PERICENTER,MEAN_ANOMALY,BSTAR,MEAN_MOTION_DOT,MEAN_MOTION_DDOT,TLE_LINE0,TLE_LINE1,TLE_LINE2,SEMIMAJOR_AXIS,PERIOD,APOGEE,PERIGEE,DECAYED
56456.0,STARLINK-5995,PAYLOAD,2023-11-14 13:33:41,14.98331991,0.000296,69.9995,117.886,268.6872,91.3948,-4.0388e-05,-5.75e-06,0.0,0 STARLINK-5995,1 56456U 23064J   23318.56506593 -.00000575  00000-0 -40388-4 0  9993,2 56456  69.9995 117.8860 0002960 268.6872  91.3948 14.98331991 28509,6950.187,96.107,574.109,569.994,0.0
56456.0,STARLINK-5995,PAYLOAD,2023-11-14 16:45:57,14.98331763,0.0002969,69.9995,117.5492,269.4912,90.5906,-4.135e-05,-5.86e-06,0.0,0 STARLINK-5995,1 56456U 23064J   23318.69858593 -.00000586  00000-0 -41350-4 0  9999,2 56456  69.9995 117.5492 0002969 269.4912  90.5906 14.98331763 28524,6950.187,96.107,574.116,569.989,0.0
56456.0,STARLINK-5995,PAYLOAD,2023-11-15 11:59:34,14.9832993,0.0002954,69.9993,115.5292,269.5136,90.5685,-4.6221e-06,-1.48e-06,0.0,0 STARLINK-5995,1 56456U 23064J   23319.49970522 -.00000148  00000-0 -46221-5 0  9992,2 56456  69.9993 115.5292 0002954 269.5136  90.5685 14.98329930 29002,6950.193,96.107,574.111,570.005,0.0
56456.0,STARLINK-5995,PAYLOAD,2023-11-15 13:35:42,14.98329929,0.0002958,69.9993,115.3609,269.5035,90.5785,-4.5598e-06,-1.47e-06,0.0,0 STARLINK-5995,1 56456U 23064J   23319.56646517 -.00000147  00000-0 -45598-5 0  9999,2 56456  69.9993 115.3609 0002958 269.5035  90.5785 14.98329929 28653,6950.193,96.107,574.114,570.002,0.0
56456.0,STARLINK-5995,PAYLOAD,2023-11-15 16:47:58,14.98330492,0.000296,69.9993,115.0242,269.2528,90.8292,1.691e-06,-7.3e-07,0.0,0 STARLINK-5995,1 56456U 23064J   23319.69998457 -.00000073  00000-0  16910-5 0  9999,2 56456  69.9993 115.0242 0002960 269.2528  90.8292 14.98330492 28675,6950.191,96.107,574.114,569.999,0.0
56456.0,STARLINK-5995,PAYLOAD,2023-11-16 16:50:01,14.98315095,0.0002996,69.9992,112.4992,268.2273,91.8543,-0.00012068,-1.532e-05,0.0,0 STARLINK-5995,1 56456U 23064J   23320.70140240 -.00001532  00000-0 -12068-3 0  9992,2 56456  69.9992 112.4992 0002996 268.2273  91.8543 14.98315095 29181,6950.239,96.108,574.186,570.022,0.0
56456.0,STARLINK-5995,PAYLOAD,2023-11-17 12:03:38,14.98319523,0.0003361,69.999,110.4794,269.1459,90.9315,-5.4859e-05,-7.47e-06,0.0,0 STARLINK-5995,1 56456U 23064J   23321.50252391 -.00000747  00000-0 -54859-4 0  9994,2 56456  69.9990 110.4794 0003361 269.1459  90.9315 14.98319523 29301,6950.225,96.108,574.426,569.754,0.0
56456.0,STARLINK-5995,PAYLOAD,2023-11-17 13:39:46,14.98319717,0.0003353,69.999,110.311,269.1039,90.9736,-5.1368e-05,-7.06e-06,0.0,0 STARLINK-5995,1 56456U 23064J   23321.56928416 -.00000706  00000-0 -51368-4 0  9995,2 56456  69.9990 110.3110 0003353 269.1039  90.9736 14.98319717 28959,6950.225,96.108,574.42,569.759,0.0
56456.0,STARLINK-5995,PAYLOAD,2023-11-17 16:52:02,14.9832062,0.0003338,69.999,109.9744,268.8744,91.2032,-3.748e-05,-5.4e-06,0.0,0 STARLINK-5995,1 56456U 23064J   23321.70280413 -.00000540  00000-0 -37480-4 0  9994,2 56456  69.9990 109.9744 0003338 268.8744  91.2032 14.98320620 28978,6950.222,96.108,574.407,569.767,0.0
56456.0,STARLINK-5995,PAYLOAD,2023-11-18 12:05:38,14.98323749,0.0003354,69.9993,107.9544,268.8949,91.1826,0.00011369,1.264e-05,0.0,0 STARLINK-5995,1 56456U 23064J   23322.50392305  .00001264  00000-0  11369-3 0  9996,2 56456  69.9993 107.9544 0003354 268.8949  91.1826 14.98323749 29451,6950.212,96.107,574.408,569.746,0.0
56456.0,STARLINK-5995,PAYLOAD,2023-11-18 16:54:03,14.98326482,0.0003376,69.9994,107.4495,268.8931,91.1841,0.00013601,1.53e-05,0.0,0 STARLINK-5995,1 56456U 23064J   23322.70420145  .00001530  00000-0  13601-3 0  9999,2 56456  69.9994 107.4495 0003376 268.8931  91.1841 14.98326482 29125,6950.204,96.107,574.415,569.722,0.0
56456.0,STARLINK-5995,PAYLOAD,2023-11-19 12:07:39,14.98335522,0.0003235,69.9995,105.4294,268.8612,91.2176,0.00014343,1.619e-05,0.0,0 STARLINK-5995,1 56456U 23064J   23323.50531540  .00001619  00000-0  14343-3 0  9992,2 56456  69.9995 105.4294 0003235 268.8612  91.2176 14.98335522 29601,6950.176,96.107,574.289,569.792,0.0
56456.0,STARLINK-5995,PAYLOAD,2023-11-19 13:43:47,14.98335691,0.0003224,69.9995,105.2611,268.8546,91.2244,0.00014096,1.59e-05,0.0,0 STARLINK-5995,1 56456U 23064J   23323.57207510  .00001590  00000-0  14096-3 0  9999,2 56456  69.9995 105.2611 0003224 268.8546  91.2244 14.98335691 29250,6950.175,96.107,574.281,569.8,0.0
56456.0,STARLINK-5995,PAYLOAD,2023-11-19 20:08:19,14.98337382,0.0003041,70.0001,104.5883,267.7279,92.3532,0.00015967,1.813e-05,0.0,0 STARLINK-5995,1 56456U 23064J   23323.83911239  .00001813  00000-0  15967-3 0  9994,2 56456  70.0001 104.5883 0003041 267.7279  92.3532 14.98337382 29297,6950.17,96.107,574.149,569.922,0.0
56456.0,STARLINK-5995,PAYLOAD,2023-11-20 13:45:47,14.98344291,0.000307,70.0002,102.7354,273.4469,86.6339,4.8982e-05,4.92e-06,0.0,0 STARLINK-5995,1 56456U 23064J   23324.57346598  .00000492  00000-0  48982-4 0  9992,2 56456  70.0002 102.7354 0003070 273.4469  86.6339 14.98344291 29409,6950.149,96.106,574.147,569.88,0.0
56456.0,STARLINK-5995,PAYLOAD,2023-11-20 18:34:11,14.98345393,0.0003146,70.0004,102.2308,270.4953,89.5846,5.6276e-05,5.79e-06,0.0,0 STARLINK-5995,1 56456U 23064J   23324.77374250  .00000579  00000-0  56276-4 0  9991,2 56456  70.0004 102.2308 0003146 270.4953  89.5846 14.98345393 29795,6950.145,96.106,574.197,569.824,0.0
56456.0,STARLINK-5995,PAYLOAD,2023-11-21 10:35:32,14.98334668,0.0003222,70.0006,100.5485,269.4052,90.6738,-0.0001181,-1.502e-05,0.0,0 STARLINK-5995,1 56456U 23064J   23325.44134843 -.00001502  00000-0 -11810-3 0  9991,2 56456  70.0006 100.5485 0003222 269.4052  90.6738 14.98334668 29894,6950.178,96.107,574.283,569.804,0.0
56456.0,STARLINK-5995,PAYLOAD,2023-11-21 13:47:48,14.98337387,0.0003114,70.0001,100.2113,263.6955,96.3849,-0.00010972,-1.402e-05,0.0,0 STARLINK-5995,1 56456U 23064J   23325.57486569 -.00001402  00000-0 -10972-3 0  9997,2 56456  70.0001 100.2113 0003114 263.6955  96.3849 14.98337387 29552,6950.17,96.107,574.199,569.871,0.0
56456.0,STARLINK-5995,PAYLOAD,2023-11-21 18:36:12,14.9834194,0.0003035,70.0003,99.7058,276.8529,83.2284,-1.7059e-05,-2.97e-06,0.0,0 STARLINK-5995,1 56456U 23064J   23325.77514071 -.00000297  00000-0 -17059-4 0  9994,2 56456  70.0003  99.7058 0003035 276.8529  83.2284 14.98341940 29580,6950.156,96.106,574.13,569.912,0.0
56456.0,STARLINK-5995,PAYLOAD,2023-11-22 13:49:48,14.98341297,0.0002566,70.0022,97.6868,255.5825,104.5049,-3.1754e-05,-4.72e-06,0.0,0 STARLINK-5995,1 56456U 23064J   23326.57625452 -.00000472  00000-0 -31754-4 0  9992,2 56456  70.0022  97.6868 0002566 255.5825 104.5049 14.98341297 29703,6950.158,96.106,573.806,570.24,0.0
56456.0,STARLINK-5995,PAYLOAD,2023-11-22 18:38:12,14.98346961,0.0002825,70.0013,97.1818,280.9472,79.1369,3.9436e-05,3.78e-06,0.0,0 STARLINK-5995,1 56456U 23064J   23326.77652916  .00000378  00000-0  39436-4 0  9997,2 56456  70.0013  97.1818 0002825 280.9472  79.1369 14.98346961 30090,6950.14,96.106,573.969,570.042,0.0
56456.0,STARLINK-5995,PAYLOAD,2023-11-23 12:15:43,14.9831203,0.0003131,70.0004,95.3304,273.3729,86.7072,-0.00016256,-2.031e-05,0.0,0 STARLINK-5995,1 56456U 23064J   23327.51091479 -.00002031  00000-0 -16256-3 0  9995,2 56456  70.0004  95.3304 0003131 273.3729  86.7072 14.98312030 30200,6950.248,96.108,574.29,569.937,0.0
56456.0,STARLINK-5995,PAYLOAD,2023-11-23 13:51:51,14.98311379,0.0003165,70.0003,95.162,273.6649,86.4148,-0.00016554,-2.067e-05,0.0,0 STARLINK-5995,1 56456U 23064J   23327.57767593 -.00002067  00000-0 -16554-3 0  9998,2 56456  70.0003  95.1620 0003165 273.6649  86.4148 14.98311379 29854,6950.25,96.108,574.315,569.916,0.0
56456.0,STARLINK-5995,PAYLOAD,2023-11-23 18:40:15,14.98314985,0.0003086,70.0005,94.6576,272.1096,87.971,-0.00014937,-1.874e-05,0.0,0 STARLINK-5995,1 56456U 23064J   23327.77795516 -.00001874  00000-0 -14937-3 0  9994,2 56456  70.0005  94.6576 0003086 272.1096  87.9710 14.98314985 29882,6950.239,96.108,574.249,569.959,0.0
56456.0,STARLINK-5995,PAYLOAD,2023-11-24 10:41:35,14.98329413,0.0003431,69.9999,92.9747,274.0506,86.0261,-8.2524e-05,-1.078e-05,0.0,0 STARLINK-5995,1 56456U 23064J   23328.44554682 -.00001078  00000-0 -82524-4 0  9990,2 56456  69.9999  92.9747 0003431 274.0506  86.0261 14.98329413 30349,6950.195,96.107,574.444,569.675,0.0
56456.0,STARLINK-5995,PAYLOAD,2023-11-24 13:53:50,14.98399221,0.0002633,70.0003,92.6379,261.7291,98.357,-0.001206,-0.00014479,0.0,0 STARLINK-5995,1 56456U 23064J   23328.57905506 -.00014479  00000-0 -12060-2 0  9994,2 56456  70.0003  92.6379 0002633 261.7291  98.3570 14.98399221 30009,6949.979,96.103,573.674,570.014,0.0
56456.0,STARLINK-5995,PAYLOAD,2023-11-24 18:42:14,14.98338165,0.0003295,70.0003,92.1328,274.7979,85.2804,3.1355e-05,2.81e-06,0.0,0 STARLINK-5995,1 56456U 23064J   23328.77933759  .00000281  00000-0  31355-4 0  9991,2 56456  70.0003  92.1328 0003295 274.7979  85.2804 14.98338165 30397,6950.168,96.106,574.323,569.743,0.0
56456.0,STARLINK-5995,PAYLOAD,2023-11-25 13:55:51,14.98325551,0.0003004,70.0012,90.1132,277.1314,82.9503,0.0002239,2.579e-05,0.0,0 STARLINK-5995,1 56456U 23064J   23329.58046076  .00002579  00000-0  22390-3 0  9998,2 56456  70.0012  90.1132 0003004 277.1314  82.9503 14.98325551 30155,6950.207,96.107,574.159,569.984,0.0
56456.0,STARLINK-5995,PAYLOAD,2023-11-25 18:44:15,14.98333222,0.0002639,70.0019,89.6106,261.8337,98.2523,0.00030164,3.508e-05,0.0,0 STARLINK-5995,1 56456U 23064J   23329.78073345  .00003508  00000-0  30164-3 0  9990,2 56456  70.0019  89.6106 0002639 261.8337  98.2523 14.98333222 30183,6950.183,96.107,573.882,570.214,0.0
56456.0,STARLINK-5995,PAYLOAD,2023-11-26 13:57:52,14.98336648,0.0003004,70.0013,87.5888,265.598,94.4836,3.7293e-05,3.52e-06,0.0,0 STARLINK-5995,1 56456U 23064J   23330.58185338  .00000352  00000-0  37293-4 0  9991,2 56456  70.0013  87.5888 0003004 265.5980  94.4836 14.98336648 30307,6950.172,96.107,574.125,569.95,0.0
